start=new Date('2023-02-08T00:00:00.000Z').valueOf();
sats=[{"MEAN_MOTION_DOT":"0.00000220","OBJECT_ID":"2021-036V","CLASSIFICATION_TYPE":"U","TIME_SYSTEM":"UTC","APOAPSIS":"548.237","MEAN_MOTION":"15.06397884","BSTAR":"0.00003368100000","TLE_LINE2":"2 48295  53.0527  95.7229 0001469  79.9389 280.1766 15.06397884 98627","CENTER_NAME":"EARTH","OBJECT_NAME":"STARLINK-2535","SITE":"AFETR","EPHEMERIS_TYPE":"0","SEMIMAJOR_AXIS":"6925.355","RA_OF_ASC_NODE":"95.7229","INCLINATION":"53.0527","LAUNCH_DATE":"2021-04-29","NORAD_CAT_ID":"48295","COUNTRY_CODE":"US","ELEMENT_SET_NO":"999","ARG_OF_PERICENTER":"79.9389","TLE_LINE1":"1 48295U 21036V   23038.84631398  .00000220  00000-0  33681-4 0  9997","OBJECT_TYPE":"PAYLOAD","MEAN_ANOMALY":"280.1766","MEAN_ELEMENT_THEORY":"SGP4","RCS_SIZE":"LARGE","MEAN_MOTION_DDOT":"0.0000000000000","REV_AT_EPOCH":"9862","EPOCH":"2023-02-07T20:18:41.527872","ECCENTRICITY":"0.00014690","REF_FRAME":"TEME","PERIOD":"95.592","GP_ID":"224743297","DECAY_DATE":null,"PERIAPSIS":"546.203","FILE":"3777976"},{"BSTAR":"0.00008867400000","MEAN_MOTION":"15.06403792","CLASSIFICATION_TYPE":"U","TIME_SYSTEM":"UTC","APOAPSIS":"548.398","OBJECT_ID":"2021-036W","MEAN_MOTION_DOT":"0.00001040","CENTER_NAME":"EARTH","OBJECT_NAME":"STARLINK-2546","TLE_LINE2":"2 48296  53.0557  95.7438 0001727  72.6053 287.5125 15.06403792 98624","SEMIMAJOR_AXIS":"6925.337","RA_OF_ASC_NODE":"95.7438","EPHEMERIS_TYPE":"0","SITE":"AFETR","LAUNCH_DATE":"2021-04-29","INCLINATION":"53.0557","ARG_OF_PERICENTER":"72.6053","TLE_LINE1":"1 48296U 21036W   23038.84262436  .00001040  00000-0  88674-4 0  9994","COUNTRY_CODE":"US","ELEMENT_SET_NO":"999","NORAD_CAT_ID":"48296","MEAN_MOTION_DDOT":"0.0000000000000","REV_AT_EPOCH":"9862","MEAN_ANOMALY":"287.5125","MEAN_ELEMENT_THEORY":"SGP4","RCS_SIZE":"LARGE","OBJECT_TYPE":"PAYLOAD","GP_ID":"224742057","PERIOD":"95.592","REF_FRAME":"TEME","ECCENTRICITY":"0.00017270","EPOCH":"2023-02-07T20:13:22.744704","PERIAPSIS":"546.006","FILE":"3777976","DECAY_DATE":null},{"DECAY_DATE":null,"FILE":"3777208","PERIAPSIS":"546.235","EPOCH":"2023-02-07T10:34:49.977408","ECCENTRICITY":"0.00013570","PERIOD":"95.591","GP_ID":"224703634","REF_FRAME":"TEME","RCS_SIZE":"LARGE","MEAN_ANOMALY":"267.1918","MEAN_ELEMENT_THEORY":"SGP4","OBJECT_TYPE":"PAYLOAD","REV_AT_EPOCH":"9856","MEAN_MOTION_DDOT":"0.0000000000000","NORAD_CAT_ID":"48297","TLE_LINE1":"1 48297U 21036X   23038.44085622  .00005159  00000-0  36485-3 0  9998","ARG_OF_PERICENTER":"92.9227","ELEMENT_SET_NO":"999","COUNTRY_CODE":"US","INCLINATION":"53.0533","LAUNCH_DATE":"2021-04-29","SITE":"AFETR","EPHEMERIS_TYPE":"0","RA_OF_ASC_NODE":"97.5542","SEMIMAJOR_AXIS":"6925.310","TLE_LINE2":"2 48297  53.0533  97.5542 0001357  92.9227 267.1918 15.06412603 98560","OBJECT_NAME":"STARLINK-2544","CENTER_NAME":"EARTH","OBJECT_ID":"2021-036X","MEAN_MOTION_DOT":"0.00005159","BSTAR":"0.00036485000000","MEAN_MOTION":"15.06412603","APOAPSIS":"548.115","CLASSIFICATION_TYPE":"U","TIME_SYSTEM":"UTC"},{"MEAN_MOTION_DOT":"0.00002321","OBJECT_ID":"2021-036Y","APOAPSIS":"548.108","CLASSIFICATION_TYPE":"U","TIME_SYSTEM":"UTC","BSTAR":"0.00017456000000","MEAN_MOTION":"15.06415370","TLE_LINE2":"2 48298  53.0522  96.6771 0001359 103.7225 256.3916 15.06415370 98599","OBJECT_NAME":"STARLINK-2559","CENTER_NAME":"EARTH","SITE":"AFETR","EPHEMERIS_TYPE":"0","RA_OF_ASC_NODE":"96.6771","SEMIMAJOR_AXIS":"6925.301","INCLINATION":"53.0522","LAUNCH_DATE":"2021-04-29","NORAD_CAT_ID":"48298","ELEMENT_SET_NO":"999","COUNTRY_CODE":"US","TLE_LINE1":"1 48298U 21036Y   23038.63620164  .00002321  00000-0  17456-3 0  9991","ARG_OF_PERICENTER":"103.7225","OBJECT_TYPE":"PAYLOAD","RCS_SIZE":"LARGE","MEAN_ANOMALY":"256.3916","MEAN_ELEMENT_THEORY":"SGP4","REV_AT_EPOCH":"9859","MEAN_MOTION_DDOT":"0.0000000000000","EPOCH":"2023-02-07T15:16:07.821696","ECCENTRICITY":"0.00013590","REF_FRAME":"TEME","GP_ID":"224742557","PERIOD":"95.591","DECAY_DATE":null,"FILE":"3777976","PERIAPSIS":"546.225"},{"INCLINATION":"53.0547","LAUNCH_DATE":"2021-04-29","EPHEMERIS_TYPE":"0","SITE":"AFETR","SEMIMAJOR_AXIS":"6925.335","RA_OF_ASC_NODE":"97.5786","TLE_LINE2":"2 48299  53.0547  97.5786 0001476  77.6818 282.4336 15.06404577 98560","CENTER_NAME":"EARTH","OBJECT_NAME":"STARLINK-2557","OBJECT_ID":"2021-036Z","MEAN_MOTION_DOT":"0.00000703","BSTAR":"0.00006610200000","MEAN_MOTION":"15.06404577","TIME_SYSTEM":"UTC","CLASSIFICATION_TYPE":"U","APOAPSIS":"548.222","DECAY_DATE":null,"PERIAPSIS":"546.177","FILE":"3777208","EPOCH":"2023-02-07T10:24:13.250880","ECCENTRICITY":"0.00014760","PERIOD":"95.592","GP_ID":"224702644","REF_FRAME":"TEME","MEAN_ANOMALY":"282.4336","MEAN_ELEMENT_THEORY":"SGP4","RCS_SIZE":"LARGE","OBJECT_TYPE":"PAYLOAD","MEAN_MOTION_DDOT":"0.0000000000000","REV_AT_EPOCH":"9856","NORAD_CAT_ID":"48299","ARG_OF_PERICENTER":"77.6818","TLE_LINE1":"1 48299U 21036Z   23038.43348670  .00000703  00000-0  66102-4 0  9994","COUNTRY_CODE":"US","ELEMENT_SET_NO":"999"},{"APOAPSIS":"548.123","TIME_SYSTEM":"UTC","CLASSIFICATION_TYPE":"U","BSTAR":"0.00019517000000","MEAN_MOTION":"15.06412895","MEAN_MOTION_DOT":"0.00002628","OBJECT_ID":"2021-036AA","OBJECT_NAME":"STARLINK-2538","CENTER_NAME":"EARTH","TLE_LINE2":"2 48300  53.0573 105.5302 0001371 106.5948 253.5191 15.06412895 98498","RA_OF_ASC_NODE":"105.5302","SEMIMAJOR_AXIS":"6925.309","SITE":"AFETR","EPHEMERIS_TYPE":"0","LAUNCH_DATE":"2021-04-29","INCLINATION":"53.0573","ELEMENT_SET_NO":"999","COUNTRY_CODE":"US","TLE_LINE1":"1 48300U 21036AA  23038.88961125  .00002628  00000-0  19517-3 0  9997","ARG_OF_PERICENTER":"106.5948","NORAD_CAT_ID":"48300","REV_AT_EPOCH":"9849","MEAN_MOTION_DDOT":"0.0000000000000","OBJECT_TYPE":"PAYLOAD","RCS_SIZE":"LARGE","MEAN_ANOMALY":"253.5191","MEAN_ELEMENT_THEORY":"SGP4","REF_FRAME":"TEME","GP_ID":"224741557","PERIOD":"95.591","EPOCH":"2023-02-07T21:21:02.412000","ECCENTRICITY":"0.00013710","FILE":"3777976","PERIAPSIS":"546.225","DECAY_DATE":null},{"INCLINATION":"53.0560","LAUNCH_DATE":"2021-04-29","SITE":"AFETR","EPHEMERIS_TYPE":"0","SEMIMAJOR_AXIS":"6925.342","RA_OF_ASC_NODE":"107.6348","TLE_LINE2":"2 48301  53.0560 107.6348 0001388  92.2113 267.9035 15.06402025 98413","CENTER_NAME":"EARTH","OBJECT_NAME":"STARLINK-2537","MEAN_MOTION_DOT":"0.00000968","OBJECT_ID":"2021-036AB","CLASSIFICATION_TYPE":"U","TIME_SYSTEM":"UTC","APOAPSIS":"548.169","BSTAR":"0.00008389900000","MEAN_MOTION":"15.06402025","DECAY_DATE":null,"PERIAPSIS":"546.246","FILE":"3777208","ECCENTRICITY":"0.00013880","EPOCH":"2023-02-07T10:06:58.349088","REF_FRAME":"TEME","GP_ID":"224704135","PERIOD":"95.592","OBJECT_TYPE":"PAYLOAD","MEAN_ANOMALY":"267.9035","MEAN_ELEMENT_THEORY":"SGP4","RCS_SIZE":"LARGE","MEAN_MOTION_DDOT":"0.0000000000000","REV_AT_EPOCH":"9841","NORAD_CAT_ID":"48301","COUNTRY_CODE":"US","ELEMENT_SET_NO":"999","ARG_OF_PERICENTER":"92.2113","TLE_LINE1":"1 48301U 21036AB  23038.42150867  .00000968  00000-0  83899-4 0  9991"},{"ECCENTRICITY":"0.00013180","EPOCH":"2023-02-07T10:01:39.374976","REF_FRAME":"TEME","GP_ID":"224702899","PERIOD":"95.592","DECAY_DATE":null,"FILE":"3777208","PERIAPSIS":"546.284","NORAD_CAT_ID":"48302","ELEMENT_SET_NO":"999","COUNTRY_CODE":"US","TLE_LINE1":"1 48302U 21036AC  23038.41781684  .00002560  00000-0  19069-3 0  9995","ARG_OF_PERICENTER":"79.5952","OBJECT_TYPE":"PAYLOAD","RCS_SIZE":"LARGE","MEAN_ANOMALY":"280.5185","MEAN_ELEMENT_THEORY":"SGP4","REV_AT_EPOCH":"9841","MEAN_MOTION_DDOT":"0.0000000000000","EPHEMERIS_TYPE":"0","SITE":"AFETR","RA_OF_ASC_NODE":"107.6508","SEMIMAJOR_AXIS":"6925.332","INCLINATION":"53.0547","LAUNCH_DATE":"2021-04-29","MEAN_MOTION_DOT":"0.00002560","OBJECT_ID":"2021-036AC","APOAPSIS":"548.110","TIME_SYSTEM":"UTC","CLASSIFICATION_TYPE":"U","MEAN_MOTION":"15.06405391","BSTAR":"0.00019069000000","TLE_LINE2":"2 48302  53.0547 107.6508 0001318  79.5952 280.5185 15.06405391 98415","OBJECT_NAME":"STARLINK-2556","CENTER_NAME":"EARTH"},{"EPHEMERIS_TYPE":"0","SITE":"AFETR","SEMIMAJOR_AXIS":"6925.341","RA_OF_ASC_NODE":"105.5829","INCLINATION":"53.0536","LAUNCH_DATE":"2021-04-29","MEAN_MOTION_DOT":"0.00000029","OBJECT_ID":"2021-036AD","CLASSIFICATION_TYPE":"U","TIME_SYSTEM":"UTC","APOAPSIS":"548.084","BSTAR":"0.00002080400000","MEAN_MOTION":"15.06402562","TLE_LINE2":"2 48303  53.0536 105.5829 0001268  75.6360 284.4770 15.06402562 98488","CENTER_NAME":"EARTH","OBJECT_NAME":"STARLINK-2530","EPOCH":"2023-02-07T21:03:46.208160","ECCENTRICITY":"0.00012680","REF_FRAME":"TEME","PERIOD":"95.592","GP_ID":"224743298","DECAY_DATE":null,"PERIAPSIS":"546.328","FILE":"3777976","NORAD_CAT_ID":"48303","COUNTRY_CODE":"US","ELEMENT_SET_NO":"999","ARG_OF_PERICENTER":"75.6360","TLE_LINE1":"1 48303U 21036AD  23038.87761815  .00000029  00000-0  20804-4 0  9998","OBJECT_TYPE":"PAYLOAD","MEAN_ELEMENT_THEORY":"SGP4","MEAN_ANOMALY":"284.4770","RCS_SIZE":"LARGE","MEAN_MOTION_DDOT":"0.0000000000000","REV_AT_EPOCH":"9848"},{"NORAD_CAT_ID":"48304","ELEMENT_SET_NO":"999","COUNTRY_CODE":"US","TLE_LINE1":"1 48304U 21036AE  23038.87487549  .00005736  00000-0  40357-3 0  9992","ARG_OF_PERICENTER":"91.0558","OBJECT_TYPE":"PAYLOAD","RCS_SIZE":"LARGE","MEAN_ELEMENT_THEORY":"SGP4","MEAN_ANOMALY":"269.0591","REV_AT_EPOCH":"9848","MEAN_MOTION_DDOT":"0.0000000000000","EPOCH":"2023-02-07T20:59:49.242336","ECCENTRICITY":"0.00013950","REF_FRAME":"TEME","GP_ID":"224742058","PERIOD":"95.592","DECAY_DATE":null,"FILE":"3777976","PERIAPSIS":"546.222","MEAN_MOTION_DOT":"0.00005736","OBJECT_ID":"2021-036AE","APOAPSIS":"548.154","CLASSIFICATION_TYPE":"U","TIME_SYSTEM":"UTC","BSTAR":"0.00040357000000","MEAN_MOTION":"15.06408410","TLE_LINE2":"2 48304  53.0543 105.6008 0001395  91.0558 269.0591 15.06408410 98487","OBJECT_NAME":"STARLINK-2524","CENTER_NAME":"EARTH","SITE":"AFETR","EPHEMERIS_TYPE":"0","RA_OF_ASC_NODE":"105.6008","SEMIMAJOR_AXIS":"6925.323","INCLINATION":"53.0543","LAUNCH_DATE":"2021-04-29"}];
